ONEWEB-0273             
1 48991U 21060AA  23311.59275564  .00000103  00000+0  23614-3 0  9995
2 48991  87.9084  58.3655 0001395  98.8994 261.2295 13.16593907114249
ONEWEB-0274             
1 48992U 21060AB  23311.54208760  .00000071  00000+0  15271-3 0  9999
2 48992  87.9085  58.3795 0001951  81.4032 278.7320 13.16594995114278
ONEWEB-0275             
1 48993U 21060AC  23311.53152725  .00000099  00000+0  22449-3 0  9993
2 48993  87.9076  58.3806 0001508 100.9204 259.2097 13.16600382114204
ONEWEB-0276             
1 48994U 21060AD  23311.56531290  .00000029  00000+0  42293-4 0  9998
2 48994  87.9083  58.3645 0001248  97.4043 262.7229 13.16594030114226
ONEWEB-0277             
1 48995U 21060AE  23311.57797683  .00000062  00000+0  12924-3 0  9994
2 48995  87.9080  58.4012 0001206  82.1933 277.9334 13.16594134114215
ONEWEB-0278             
1 48996U 21060AF  23311.56741898 -.00000045  00000+0 -15031-3 0  9996
2 48996  87.9083  58.3603 0001678 113.4628 246.6680 13.16595068114344
ONEWEB-0279             
1 48997U 21060AG  23311.57585786 -.00002429  00000+0 -63886-2 0  9998
2 48997  87.9082  58.3568 0001800  95.8250 264.3086 13.16604960114276
ONEWEB-0280             
1 48998U 21060AH  23311.59065539  .00000615  00000+0  15751-2 0  9991
2 48998  87.9081  58.3537 0001817  87.7701 272.3638 13.16591999114214
